SENTINEL-6              
1 46984U 20086A   24006.52139777 -.00000021  00000+0  17555-3 0  9999
2 46984  66.0392 189.1279 0007650 269.7103  90.3036 12.80929965145992
